IRIDIUM 154             
1 43574U 18061F   26161.46405619  .00000035  00000+0  54384-5 0  9996
2 43574  86.3968  59.6179 0002035  87.5080 272.6349 14.34217715412443
IRIDIUM 163             
1 43575U 18061G   26161.44501972  .00000087  00000+0  23995-4 0  9994
2 43575  86.3965  59.5414 0002319  83.8153 276.3307 14.34215845412411
IRIDIUM 156             
1 43576U 18061H   26161.62896220  .00000210  00000+0  67922-4 0  9994
2 43576  86.3962  59.4715 0002121  79.7545 280.3889 14.34216531412437
IRIDIUM 164             
1 43577U 18061J   26161.47039887  .00000070  00000+0  18021-4 0  9996
2 43577  86.3968  59.5782 0002107  88.6040 271.5397 14.34217455412456
IRIDIUM 159             
1 43578U 18061K   26161.64799127  .00000192  00000+0  61609-4 0  9991
2 43578  86.3965  59.4410 0002317  84.4716 275.6744 14.34217214412441
IRIDIUM 180             
1 43922U 19002A   26161.57771860  .00000019  00000+0 -17039-6 0  9995
2 43922  86.3967 356.3613 0002137  89.0454 271.0987 14.34217800388048
IRIDIUM 176             
1 43923U 19002B   26161.56611281  .00000680  00000+0  10388-3 0  9995
2 43923  86.6093 356.3107 0002227  91.2159 268.9314 14.72258187398277
IRIDIUM 168             
1 43924U 19002C   26161.57137715  .00000035  00000+0  53990-5 0  9994
2 43924  86.3974 356.4411 0002183  88.9662 271.1784 14.34217673388027
IRIDIUM 173             
1 43925U 19002D   26161.62845949  .00000042  00000+0  78479-5 0  9993
2 43925  86.3971 356.3063 0002238  86.7028 273.4424 14.34217286388015
IRIDIUM 169             
1 43926U 19002E   26160.39243543  .00000237  00000+0  71085-4 0  9990
2 43926  86.4233  28.4526 0002129  70.4730 289.6698 14.38610903389108
IRIDIUM 172             
1 43927U 19002F   26161.55234599  .00000130  00000+0  39199-4 0  9993
2 43927  86.3970 356.3460 0002271  88.4906 271.6550 14.34219108388013
IRIDIUM 175             
1 43928U 19002G   26161.62160673  .00000286  00000+0  78393-4 0  9994
2 43928  86.4507 293.2658 0001644 204.8569 155.2553 14.43609149398032
IRIDIUM 171             
1 43929U 19002H   26161.60308728 -.00000114  00000+0 -47651-4 0  9993
2 43929  86.3973 356.6300 0001918  87.0406 273.1010 14.34218250388016
IRIDIUM 170             
1 43930U 19002J   26161.57229565  .00000677  00000+0  10346-3 0  9994
2 43930  86.6091 356.3104 0002360  87.9468 272.2020 14.72258611398288
IRIDIUM 167             
1 43931U 19002K   26161.59674639  .00000047  00000+0  96299-5 0  9997
2 43931  86.3972 356.3498 0001856  86.8048 273.3361 14.34217792388014
IRIDIUM 181             
1 56726U 23068S   26161.45083760  .00000266  00000+0  73103-4 0  9995
2 56726  86.4503  59.6065 0002312  90.6941 269.4525 14.43311027161469
IRIDIUM 177             
1 56727U 23068T   26161.49479605  .00000632  00000+0  79631-4 0  9996
2 56727  86.1961 331.9710 0002431  87.6641 272.4858 14.80217275165371
IRIDIUM 174             
1 56728U 23068U   26161.55994220  .00000705  00000+0  10783-3 0  9992
2 56728  86.6099 356.4625 0002558  84.9770 275.1739 14.72254714165041
IRIDIUM 178             
1 56729U 23068V   26161.61913068  .00000858  00000+0  10948-3 0  9993
2 56729  86.6543  28.1052 0002681  88.0752 272.0777 14.80222431165391
IRIDIUM 179             
1 56730U 23068W   26161.41094579  .00000821  00000+0  10457-3 0  9995
2 56730  86.6784  37.1519 0002402  87.3076 272.8421 14.80238701165368
