OBJECT_NAME,OBJECT_ID,EPOCH,MEAN_MOTION,ECCENTRICITY,INCLINATION,RA_OF_ASC_NODE,ARG_OF_PERICENTER,MEAN_ANOMALY,EPHEMERIS_TYPE,CLASSIFICATION_TYPE,NORAD_CAT_ID,ELEMENT_SET_NO,REV_AT_EPOCH,BSTAR,MEAN_MOTION_DOT,MEAN_MOTION_DDOT
IRIDIUM 154,2018-061F,2026-06-10T11:08:14.454816,14.34217715,.00020359,86.3968,59.6179,87.5080,272.6349,0,U,43574,999,41244,.543837E-5,.35E-6,0
IRIDIUM 163,2018-061G,2026-06-10T10:40:49.703808,14.34215845,.0002319,86.3965,59.5414,83.8153,276.3307,0,U,43575,999,41241,.2399496E-4,.87E-6,0
IRIDIUM 156,2018-061H,2026-06-10T15:05:42.334080,14.34216531,.00021216,86.3962,59.4715,79.7545,280.3889,0,U,43576,999,41243,.67921581E-4,.21E-5,0
IRIDIUM 164,2018-061J,2026-06-10T11:17:22.462368,14.34217455,.00021076,86.3968,59.5782,88.6040,271.5397,0,U,43577,999,41245,.18020561E-4,.7E-6,0
IRIDIUM 159,2018-061K,2026-06-10T15:33:06.445728,14.34217214,.00023178,86.3965,59.4410,84.4716,275.6744,0,U,43578,999,41244,.61609378E-4,.192E-5,0
IRIDIUM 180,2019-002A,2026-06-10T13:51:54.887040,14.34217800,.00021371,86.3967,356.3613,89.0454,271.0987,0,U,43922,999,38804,-.170392E-6,.19E-6,0
IRIDIUM 176,2019-002B,2026-06-10T13:35:12.146784,14.72258187,.00022275,86.6093,356.3107,91.2159,268.9314,0,U,43923,999,39827,.10388376E-3,.68E-5,0
IRIDIUM 168,2019-002C,2026-06-10T13:42:46.985760,14.34217673,.00021834,86.3974,356.4411,88.9662,271.1784,0,U,43924,999,38802,.5399035E-5,.35E-6,0
IRIDIUM 173,2019-002D,2026-06-10T15:04:58.899936,14.34217286,.00022389,86.3971,356.3063,86.7028,273.4424,0,U,43925,999,38801,.7847882E-5,.42E-6,0
IRIDIUM 169,2019-002E,2026-06-09T09:25:06.421152,14.38610903,.00021297,86.4233,28.4526,70.4730,289.6698,0,U,43926,999,38910,.71085381E-4,.237E-5,0
IRIDIUM 172,2019-002F,2026-06-10T13:15:22.693536,14.34219108,.00022718,86.3970,356.3460,88.4906,271.6550,0,U,43927,999,38801,.39199087E-4,.13E-5,0
IRIDIUM 175,2019-002G,2026-06-10T14:55:06.821472,14.43609149,.00016445,86.4507,293.2658,204.8569,155.2553,0,U,43928,999,39803,.78392549E-4,.286E-5,0
IRIDIUM 171,2019-002H,2026-06-10T14:28:26.740992,14.34218250,.00019182,86.3973,356.6300,87.0406,273.1010,0,U,43929,999,38801,-.47650621E-4,-.114E-5,0
IRIDIUM 170,2019-002J,2026-06-10T13:44:06.344160,14.72258611,.00023606,86.6091,356.3104,87.9468,272.2020,0,U,43930,999,39828,.10346471E-3,.677E-5,0
IRIDIUM 167,2019-002K,2026-06-10T14:19:18.888096,14.34217792,.00018568,86.3972,356.3498,86.8048,273.3361,0,U,43931,999,38801,.962993E-5,.47E-6,0
IRIDIUM 181,2023-068S,2026-06-10T10:49:12.368640,14.43311027,.00023123,86.4503,59.6065,90.6941,269.4525,0,U,56726,999,16146,.73102579E-4,.266E-5,0
IRIDIUM 177,2023-068T,2026-06-10T11:52:30.378720,14.80217275,.00024311,86.1961,331.9710,87.6641,272.4858,0,U,56727,999,16537,.79630858E-4,.632E-5,0
IRIDIUM 174,2023-068U,2026-06-10T13:26:19.006080,14.72254714,.00025584,86.6099,356.4625,84.9770,275.1739,0,U,56728,999,16504,.10783075E-3,.705E-5,0
IRIDIUM 178,2023-068V,2026-06-10T14:51:32.890752,14.80222431,.00026812,86.6543,28.1052,88.0752,272.0777,0,U,56729,999,16539,.10947854E-3,.858E-5,0
IRIDIUM 179,2023-068W,2026-06-10T09:51:45.716256,14.80238701,.00024029,86.6784,37.1519,87.3076,272.8421,0,U,56730,999,16536,.10457126E-3,.821E-5,0
